<?xml version='1.0' encoding='UTF-8'?>

<!--
    Monaco SUMO Traffic (MoST) Scenario
    Copyright (C) 2018
    Lara CODECA

    This program is free software: you can redistribute it and/or modify
    it under the terms of the GNU General Public License as published by
    the Free Software Foundation, either version 3 of the License, or
    (at your option) any later version.

    This program is distributed in the hope that it will be useful,
    but WITHOUT ANY WARRANTY; without even the implied warranty of
    MERCHANTABILITY or FITNESS FOR A PARTICULAR PURPOSE.  See the
    GNU General Public License for more details.

    You should have received a copy of the GNU General Public License
    along with this program.  If not, see <http://www.gnu.org/licenses/>.
-->

<osm version="0.6" generator="osmfilter 1.4.4">
	<node id="-63149" lat="43.7637568" lon="7.4865211" version="1"/>
	<node id="-63151" lat="43.7628657" lon="7.4865285" version="1"/>
	<node id="-63153" lat="43.7628591" lon="7.4850046" version="1"/>
	<node id="-63155" lat="43.7637501" lon="7.4849972" version="1"/>
	<node id="-63157" lat="43.7672412" lon="7.4861994" version="1"/>
	<node id="-63159" lat="43.7651915" lon="7.4862674" version="1"/>
	<node id="-63161" lat="43.7651288" lon="7.4826416" version="1"/>
	<node id="-63163" lat="43.7671785" lon="7.4825736" version="1"/>
	<node id="-63165" lat="43.7771836" lon="7.450425" version="1"/>
	<node id="-63167" lat="43.775658" lon="7.4505318" version="1"/>
	<node id="-63169" lat="43.775567" lon="7.4480368" version="1"/>
	<node id="-63171" lat="43.7770926" lon="7.4479301" version="1"/>
	<node id="-63173" lat="43.7595138" lon="7.4061133" version="1"/>
	<node id="-63175" lat="43.7586227" lon="7.4061207" version="1"/>
	<node id="-63177" lat="43.7586161" lon="7.4045969" version="1"/>
	<node id="-63179" lat="43.7595072" lon="7.4045895" version="1"/>
	<node id="-63181" lat="43.7492842" lon="7.3636541" version="1"/>
	<node id="-63183" lat="43.748393" lon="7.3636615" version="1"/>
	<node id="-63185" lat="43.7483864" lon="7.3621376" version="1"/>
	<node id="-63187" lat="43.7492776" lon="7.3621302" version="1"/>
	<node id="-63189" lat="43.7456655" lon="7.3637812" version="1"/>
	<node id="-63191" lat="43.7447742" lon="7.3637886" version="1"/>
	<node id="-63193" lat="43.7447676" lon="7.3622648" version="1"/>
	<node id="-63195" lat="43.7456589" lon="7.3622574" version="1"/>
	<node id="-63197" lat="43.7367373" lon="7.3638321" version="1"/>
	<node id="-63199" lat="43.7358459" lon="7.3638395" version="1"/>
	<node id="-63201" lat="43.7358393" lon="7.3623156" version="1"/>
	<node id="-63203" lat="43.7367307" lon="7.3623082" version="1"/>
	<node id="-63205" lat="43.73106" lon="7.3638321" version="1"/>
	<node id="-63207" lat="43.7301685" lon="7.3638395" version="1"/>
	<node id="-63209" lat="43.7301619" lon="7.3623156" version="1"/>
	<node id="-63211" lat="43.7310534" lon="7.3623082" version="1"/>
	<node id="-63213" lat="43.723269" lon="7.3638067" version="1"/>
	<node id="-63215" lat="43.7223774" lon="7.3638141" version="1"/>
	<node id="-63217" lat="43.7223707" lon="7.3622902" version="1"/>
	<node id="-63219" lat="43.7232624" lon="7.3622828" version="1"/>
	<way id="-63221" version="1">
		<nd ref="-63149"/>
		<nd ref="-63151"/>
		<nd ref="-63153"/>
		<nd ref="-63155"/>
		<nd ref="-63149"/>
		<tag k="admin_level" v="15"/>
		<tag k="boundary" v="administrative"/>
		<tag k="gateway" v="secondary"/>
		<tag k="name" v="gw45"/>
	</way>
	<way id="-63223" version="1">
		<nd ref="-63157"/>
		<nd ref="-63159"/>
		<nd ref="-63161"/>
		<nd ref="-63163"/>
		<nd ref="-63157"/>
		<tag k="admin_level" v="15"/>
		<tag k="boundary" v="administrative"/>
		<tag k="gateway" v="primary"/>
		<tag k="name" v="gw34"/>
	</way>
	<way id="-63225" version="1">
		<nd ref="-63165"/>
		<nd ref="-63167"/>
		<nd ref="-63169"/>
		<nd ref="-63171"/>
		<nd ref="-63165"/>
		<tag k="admin_level" v="15"/>
		<tag k="boundary" v="administrative"/>
		<tag k="gateway" v="primary"/>
		<tag k="name" v="gw33"/>
	</way>
	<way id="-63227" version="1">
		<nd ref="-63173"/>
		<nd ref="-63175"/>
		<nd ref="-63177"/>
		<nd ref="-63179"/>
		<nd ref="-63173"/>
		<tag k="admin_level" v="15"/>
		<tag k="boundary" v="administrative"/>
		<tag k="gateway" v="secondary"/>
		<tag k="name" v="gw44"/>
	</way>
	<way id="-63229" version="1">
		<nd ref="-63181"/>
		<nd ref="-63183"/>
		<nd ref="-63185"/>
		<nd ref="-63187"/>
		<nd ref="-63181"/>
		<tag k="admin_level" v="15"/>
		<tag k="boundary" v="administrative"/>
		<tag k="gateway" v="secondary"/>
		<tag k="name" v="gw43"/>
	</way>
	<way id="-63231" version="1">
		<nd ref="-63189"/>
		<nd ref="-63191"/>
		<nd ref="-63193"/>
		<nd ref="-63195"/>
		<nd ref="-63189"/>
		<tag k="admin_level" v="15"/>
		<tag k="boundary" v="administrative"/>
		<tag k="gateway" v="primary"/>
		<tag k="name" v="gw32"/>
	</way>
	<way id="-63233" version="1">
		<nd ref="-63197"/>
		<nd ref="-63199"/>
		<nd ref="-63201"/>
		<nd ref="-63203"/>
		<nd ref="-63197"/>
		<tag k="admin_level" v="15"/>
		<tag k="boundary" v="administrative"/>
		<tag k="gateway" v="secondary"/>
		<tag k="name" v="gw42"/>
	</way>
	<way id="-63235" version="1">
		<nd ref="-63205"/>
		<nd ref="-63207"/>
		<nd ref="-63209"/>
		<nd ref="-63211"/>
		<nd ref="-63205"/>
		<tag k="admin_level" v="15"/>
		<tag k="boundary" v="administrative"/>
		<tag k="gateway" v="secondary"/>
		<tag k="name" v="gw41"/>
	</way>
	<way id="-63237" version="1">
		<nd ref="-63213"/>
		<nd ref="-63215"/>
		<nd ref="-63217"/>
		<nd ref="-63219"/>
		<nd ref="-63213"/>
		<tag k="admin_level" v="15"/>
		<tag k="boundary" v="administrative"/>
		<tag k="gateway" v="primary"/>
		<tag k="name" v="gw31"/>
	</way>
	<relation id="63281" version="1">
		<member type="way" ref="-63225" role="outer"/>
		<tag k="admin_level" v="15"/>
		<tag k="boundary" v="administrative"/>
		<tag k="gateway" v="primary"/>
		<tag k="name" v="gw33"/>
		<tag k="ref" v="33"/>
	</relation>
	<relation id="66090" version="1">
		<member type="way" ref="-63221" role="outer"/>
		<tag k="admin_level" v="15"/>
		<tag k="boundary" v="administrative"/>
		<tag k="gateway" v="secondary"/>
		<tag k="name" v="gw45"/>
		<tag k="ref" v="45"/>
	</relation>
	<relation id="66100" version="1">
		<member type="way" ref="-63223" role="outer"/>
		<tag k="admin_level" v="15"/>
		<tag k="boundary" v="administrative"/>
		<tag k="gateway" v="primary"/>
		<tag k="name" v="gw34"/>
		<tag k="ref" v="34"/>
	</relation>
	<relation id="66105" version="1">
		<member type="way" ref="-63227" role="outer"/>
		<tag k="admin_level" v="15"/>
		<tag k="boundary" v="administrative"/>
		<tag k="gateway" v="primary"/>
		<tag k="name" v="gw44"/>
		<tag k="ref" v="44"/>
	</relation>
	<relation id="66115" version="1">
		<member type="way" ref="-63229" role="outer"/>
		<tag k="admin_level" v="15"/>
		<tag k="boundary" v="administrative"/>
		<tag k="gateway" v="secondary"/>
		<tag k="name" v="gw43"/>
		<tag k="ref" v="43"/>
	</relation>
	<relation id="66120" version="1">
		<member type="way" ref="-63231" role="outer"/>
		<tag k="admin_level" v="15"/>
		<tag k="boundary" v="administrative"/>
		<tag k="gateway" v="primary"/>
		<tag k="name" v="gw32"/>
		<tag k="ref" v="32"/>
	</relation>
	<relation id="66125" version="1">
		<member type="way" ref="-63233" role="outer"/>
		<tag k="admin_level" v="15"/>
		<tag k="boundary" v="administrative"/>
		<tag k="gateway" v="secondary"/>
		<tag k="name" v="gw42"/>
		<tag k="ref" v="42"/>
	</relation>
	<relation id="66130" version="1">
		<member type="way" ref="-63235" role="outer"/>
		<tag k="admin_level" v="15"/>
		<tag k="boundary" v="administrative"/>
		<tag k="gateway" v="secondary"/>
		<tag k="name" v="gw41"/>
		<tag k="ref" v="41"/>
	</relation>
	<relation id="66135" version="1">
		<member type="way" ref="-63237" role="outer"/>
		<tag k="admin_level" v="15"/>
		<tag k="boundary" v="administrative"/>
		<tag k="gateway" v="primary"/>
		<tag k="name" v="gw31"/>
		<tag k="ref" v="31"/>
	</relation>
</osm>
