<?xml version='1.0' encoding='UTF-8'?>
<osm version="0.6" generator="osmfilter 1.4.4">
	<bounds minlat="43.7204509" minlon="7.3568031" maxlat="43.7919666" maxlon="7.4900202"/>
	<node id="-192961" lat="43.761349" lon="7.4822416" version="1">
		<tag k="ele" v="0.0"/>
		<tag k="name" v="Carnolès"/>
		<tag k="operator" v="SNCF"/>
		<tag k="railway" v="station"/>
		<tag k="uic_ref" v="0087756478"/>
	</node>
	<node id="-192963" lat="43.7258806" lon="7.3960299" version="1">
		<tag k="ele" v="0.0"/>
		<tag k="highway" v="bus_stop"/>
	</node>
	<node id="-192965" lat="43.7329169" lon="7.3957231" version="1">
		<tag k="ele" v="0.0"/>
		<tag k="highway" v="bus_stop"/>
	</node>
	<node id="-192967" lat="43.7354679" lon="7.4159867" version="1">
		<tag k="ele" v="0.0"/>
		<tag k="highway" v="bus_stop"/>
		<tag k="name" v="Rotondes"/>
	</node>
	<node id="-192969" lat="43.7276848" lon="7.4074327" version="1">
		<tag k="ele" v="0.0"/>
		<tag k="highway" v="bus_stop"/>
	</node>
	<node id="-192971" lat="43.7227805" lon="7.3632638" version="1">
		<tag k="ele" v="0.0"/>
		<tag k="name" v="Èze"/>
		<tag k="operator" v="SNCF"/>
		<tag k="railway" v="station"/>
		<tag k="uic_ref" v="8775638"/>
	</node>
	<node id="-192973" lat="43.7337988" lon="7.395952" version="1">
		<tag k="ele" v="0.0"/>
		<tag k="highway" v="bus_stop"/>
	</node>
	<node id="-192975" lat="43.760378" lon="7.4575597" version="1">
		<tag k="ele" v="0.0"/>
		<tag k="name" v="Roquebrune-Cap-Martin"/>
		<tag k="operator" v="SNCF"/>
		<tag k="railway" v="station"/>
		<tag k="uic_ref" v="8775646"/>
	</node>
	<node id="-192977" lat="43.7303364" lon="7.4136847" version="1">
		<tag k="bus" v="yes"/>
		<tag k="ele" v="0.0"/>
		<tag k="name" v="Cimetière"/>
		<tag k="public_transport" v="stop_position"/>
	</node>
	<node id="-192979" lat="43.7210741" lon="7.3968293" version="1">
		<tag k="ele" v="0.0"/>
		<tag k="highway" v="bus_stop"/>
		<tag k="name" v="Bois Joli"/>
	</node>
	<node id="-192981" lat="43.7378564" lon="7.4195233" version="1">
		<tag k="ele" v="0.0"/>
		<tag k="name" v="Monaco - Monte Carlo"/>
		<tag k="operator" v="SNCF"/>
		<tag k="railway" v="station"/>
		<tag k="uic_ref" v="8775640"/>
	</node>
	<node id="-192983" lat="43.7275906" lon="7.4076043" version="1">
		<tag k="ele" v="0.0"/>
		<tag k="highway" v="bus_stop"/>
	</node>
	<node id="-192985" lat="43.7452005" lon="7.3997153" version="1">
		<tag k="ele" v="0.0"/>
		<tag k="highway" v="bus_stop"/>
		<tag k="name" v="La Turbie Marie"/>
	</node>
	<node id="-192987" lat="43.7274758" lon="7.3825357" version="1">
		<tag k="ele" v="0.0"/>
		<tag k="highway" v="bus_stop"/>
		<tag k="name" v="Chapelle de Saint-Laurent"/>
	</node>
	<node id="-192989" lat="43.7205524" lon="7.393972" version="1">
		<tag k="ele" v="0.0"/>
		<tag k="name" v="Cap d&#39;Ail"/>
		<tag k="operator" v="SNCF"/>
		<tag k="railway" v="station"/>
		<tag k="uic_ref" v="8775639"/>
	</node>
	<node id="-192991" lat="43.7241667" lon="7.4045169" version="1">
		<tag k="ele" v="0.0"/>
		<tag k="highway" v="bus_stop"/>
	</node>
	<node id="-192993" lat="43.7545136" lon="7.4482061" version="1">
		<tag k="ele" v="0.0"/>
		<tag k="name" v="Monte-Carlo Country Club"/>
		<tag k="operator" v="SNCF"/>
		<tag k="railway" v="station"/>
		<tag k="uic_ref" v="8733859"/>
	</node>
	<node id="-192995" lat="43.7223145" lon="7.3964733" version="1">
		<tag k="ele" v="0.0"/>
		<tag k="highway" v="bus_stop"/>
		<tag k="name" v="Les Cigognes"/>
	</node>
	<node id="-192997" lat="43.7367492" lon="7.4194561" version="1">
		<tag k="bus" v="yes"/>
		<tag k="ele" v="0.0"/>
		<tag k="highway" v="bus_stop"/>
		<tag k="name" v="Louis Aureglia"/>
		<tag k="public_transport" v="stop_position"/>
	</node>
	<node id="-192999" lat="43.7240608" lon="7.4049263" version="1">
		<tag k="ele" v="0.0"/>
		<tag k="highway" v="bus_stop"/>
	</node>
	<node id="-193001" lat="43.7411659" lon="7.3980625" version="1">
		<tag k="ele" v="0.0"/>
		<tag k="highway" v="bus_stop"/>
	</node>
	<node id="-193003" lat="43.7260758" lon="7.3971265" version="1">
		<tag k="ele" v="0.0"/>
		<tag k="highway" v="bus_stop"/>
	</node>
	<node id="-193005" lat="43.7414599" lon="7.3985838" version="1">
		<tag k="ele" v="0.0"/>
		<tag k="highway" v="bus_stop"/>
	</node>
	<node id="-193007" lat="43.7250181" lon="7.3963875" version="1">
		<tag k="ele" v="0.0"/>
		<tag k="highway" v="bus_stop"/>
	</node>
	<node id="21917308" lat="43.7410898" lon="7.4262223" version="1">
		<tag k="bus" v="yes"/>
		<tag k="ele" v="0.0"/>
		<tag k="name" v="Monte-Carlo (TAM)"/>
		<tag k="public_transport" v="stop_position"/>
	</node>
	<node id="21918939" lat="43.7414311" lon="7.4304658" version="1">
		<tag k="bus" v="yes"/>
		<tag k="ele" v="0.0"/>
		<tag k="name" v="Portier"/>
		<tag k="public_transport" v="stop_position"/>
		<tag k="tourist_bus" v="yes"/>
	</node>
	<node id="25192215" lat="43.7325629" lon="7.4224189" version="1">
		<tag k="bus" v="yes"/>
		<tag k="ele" v="0.0"/>
		<tag k="name" v="Princesse Stéphanie"/>
		<tag k="public_transport" v="stop_position"/>
		<tag k="tourist_bus" v="yes"/>
	</node>
	<node id="25195781" lat="43.7344453" lon="7.4170037" version="1">
		<tag k="bus" v="yes"/>
		<tag k="ele" v="0.0"/>
		<tag k="highway" v="bus_stop"/>
		<tag k="name" v="Castelleretto"/>
		<tag k="public_transport" v="stop_position"/>
	</node>
	<node id="25195913" lat="43.7327806" lon="7.417661" version="1">
		<tag k="bus" v="yes"/>
		<tag k="ele" v="0.0"/>
		<tag k="name" v="Honoré II"/>
		<tag k="public_transport" v="stop_position"/>
	</node>
	<node id="25198472" lat="43.7386239" lon="7.4192225" version="1">
		<tag k="bus" v="yes"/>
		<tag k="ele" v="0.0"/>
		<tag k="name" v="Pont Sainte-Dévote"/>
		<tag k="public_transport" v="stop_position"/>
	</node>
	<node id="25198929" lat="43.7339343" lon="7.4146267" version="1">
		<tag k="bus" v="yes"/>
		<tag k="ele" v="0.0"/>
		<tag k="name" v="Villa Paloma"/>
		<tag k="public_transport" v="stop_position"/>
	</node>
	<node id="25200449" lat="43.7335324" lon="7.4139298" version="1">
		<tag k="bus" v="yes"/>
		<tag k="ele" v="0.0"/>
		<tag k="name" v="Villa Paloma"/>
		<tag k="public_transport" v="stop_position"/>
	</node>
	<node id="25239179" lat="43.7410717" lon="7.4285983" version="1">
		<tag k="bus" v="yes"/>
		<tag k="ele" v="0.0"/>
		<tag k="highway" v="bus_stop"/>
		<tag k="name" v="Citronniers"/>
		<tag k="public_transport" v="stop_position"/>
	</node>
	<node id="25240092" lat="43.7404298" lon="7.4295518" version="1">
		<tag k="bus" v="yes"/>
		<tag k="ele" v="0.0"/>
		<tag k="name" v="Spélugues"/>
		<tag k="public_transport" v="stop_position"/>
	</node>
	<node id="33015605" lat="43.7206929" lon="7.3940376" version="1">
		<tag k="ele" v="0.0"/>
		<tag k="name" v="Cap d&#39;Ail"/>
		<tag k="operator" v="SNCF"/>
		<tag k="railway" v="station"/>
		<tag k="uic_ref" v="8775639"/>
	</node>
	<node id="33016223" lat="43.7226167" lon="7.363231" version="1">
		<tag k="ele" v="0.0"/>
		<tag k="name" v="Èze"/>
		<tag k="operator" v="SNCF"/>
		<tag k="railway" v="station"/>
		<tag k="uic_ref" v="8775638"/>
	</node>
	<node id="252356750" lat="43.7301272" lon="7.4132031" version="1">
		<tag k="bus" v="yes"/>
		<tag k="ele" v="0.0"/>
		<tag k="name" v="Cimetière"/>
		<tag k="public_transport" v="stop_position"/>
	</node>
	<node id="252356770" lat="43.7307202" lon="7.4128552" version="1">
		<tag k="bus" v="yes"/>
		<tag k="ele" v="0.0"/>
		<tag k="name" v="Hôpital"/>
		<tag k="public_transport" v="stop_position"/>
	</node>
	<node id="252358385" lat="43.7296574" lon="7.4110846" version="1">
		<tag k="bus" v="yes"/>
		<tag k="ele" v="0.0"/>
		<tag k="name" v="Athanée"/>
		<tag k="public_transport" v="stop_position"/>
	</node>
	<node id="252417671" lat="43.740882" lon="7.4259598" version="1">
		<tag k="bus" v="yes"/>
		<tag k="ele" v="0.0"/>
		<tag k="name" v="Monte-Carlo (Tourisme)"/>
		<tag k="public_transport" v="stop_position"/>
	</node>
	<node id="254516782" lat="43.7275594" lon="7.4187237" version="1">
		<tag k="bus" v="yes"/>
		<tag k="ele" v="0.0"/>
		<tag k="name" v="Roseraie"/>
		<tag k="public_transport" v="stop_position"/>
		<tag k="tourist_bus" v="yes"/>
	</node>
	<node id="272637923" lat="43.7399361" lon="7.4274545" version="1">
		<tag k="bus" v="yes"/>
		<tag k="ele" v="0.0"/>
		<tag k="name" v="Place du Casino"/>
		<tag k="public_transport" v="stop_position"/>
		<tag k="tourist_bus" v="yes"/>
	</node>
	<node id="280488113" lat="43.7367463" lon="7.4209961" version="1">
		<tag k="bus" v="yes"/>
		<tag k="ele" v="0.0"/>
		<tag k="name" v="Place Sainte-Dévote (Gare)"/>
		<tag k="public_transport" v="stop_position"/>
		<tag k="tourist_bus" v="yes"/>
	</node>
	<node id="280489383" lat="43.7427446" lon="7.4281241" version="1">
		<tag k="bus" v="yes"/>
		<tag k="ele" v="0.0"/>
		<tag k="name" v="Saint-Charles"/>
		<tag k="public_transport" v="stop_position"/>
	</node>
	<node id="280489924" lat="43.7397683" lon="7.4251238" version="1">
		<tag k="bus" v="yes"/>
		<tag k="ele" v="0.0"/>
		<tag k="name" v="Monte-Carlo"/>
		<tag k="public_transport" v="stop_position"/>
	</node>
	<node id="280490389" lat="43.7387983" lon="7.4261022" version="1">
		<tag k="ele" v="0.0"/>
		<tag k="highway" v="bus_stop"/>
		<tag k="name" v="Square Beaumarchais"/>
	</node>
	<node id="642295507" lat="43.7383004" lon="7.4190786" version="1">
		<tag k="ele" v="0.0"/>
		<tag k="name" v="Monaco - Monte Carlo"/>
		<tag k="operator" v="SNCF"/>
		<tag k="railway" v="station"/>
		<tag k="uic_ref" v="8775640"/>
	</node>
	<node id="642466130" lat="43.7609242" lon="7.4573751" version="1">
		<tag k="ele" v="0.0"/>
		<tag k="name" v="Roquebrune-Cap-Martin"/>
		<tag k="operator" v="SNCF"/>
		<tag k="railway" v="station"/>
		<tag k="uic_ref" v="8775646"/>
	</node>
	<node id="642522545" lat="43.7623029" lon="7.4804178" version="1">
		<tag k="ele" v="0.0"/>
		<tag k="name" v="Carnolès"/>
		<tag k="operator" v="SNCF"/>
		<tag k="railway" v="station"/>
		<tag k="uic_ref" v="0087756478"/>
	</node>
	<node id="693242165" lat="43.7232474" lon="7.3969782" version="1">
		<tag k="bench" v="no"/>
		<tag k="covered" v="no"/>
		<tag k="ele" v="0.0"/>
		<tag k="highway" v="bus_stop"/>
		<tag k="name" v="Beaverbrook"/>
		<tag k="operator" v="Lignes d&#39;Azur N°100"/>
		<tag k="shelter" v="no"/>
	</node>
	<node id="800068165" lat="43.7629278" lon="7.4787611" version="1">
		<tag k="ele" v="0.0"/>
		<tag k="highway" v="bus_stop"/>
		<tag k="name" v="Casernes"/>
		<tag k="route_ref" v="100;N100"/>
	</node>
	<node id="819783219" lat="43.7366476" lon="7.4163835" version="1">
		<tag k="ele" v="0.0"/>
		<tag k="highway" v="bus_stop"/>
		<tag k="name" v="Moneghetti"/>
	</node>
	<node id="939377830" lat="43.7648038" lon="7.4829394" version="1">
		<tag k="ele" v="0.0"/>
		<tag k="highway" v="bus_stop"/>
		<tag k="name" v="Marché"/>
		<tag k="route_ref" v="17;100;113;115"/>
	</node>
	<node id="939377831" lat="43.7631907" lon="7.4798353" version="1">
		<tag k="ele" v="0.0"/>
		<tag k="highway" v="bus_stop"/>
		<tag k="name" v="Casernes"/>
		<tag k="route_ref" v="100;N100"/>
	</node>
	<node id="939377838" lat="43.7602407" lon="7.4775048" version="1">
		<tag k="ele" v="0.0"/>
		<tag k="highway" v="bus_stop"/>
		<tag k="name" v="Bien Située"/>
		<tag k="route_ref" v="100;N100"/>
	</node>
	<node id="941678579" lat="43.7322441" lon="7.4186528" version="1">
		<tag k="bus" v="yes"/>
		<tag k="ele" v="0.0"/>
		<tag k="name" v="Place d&#39;Armes (TAM)"/>
		<tag k="public_transport" v="stop_position"/>
	</node>
	<node id="963237346" lat="43.7575987" lon="7.474385" version="1">
		<tag k="amenity" v="bus_station"/>
		<tag k="ele" v="0.0"/>
		<tag k="name" v="Mairie"/>
		<tag k="route_ref" v="100;110;113;17;18"/>
	</node>
	<node id="963328479" lat="43.7576279" lon="7.4820667" version="1">
		<tag k="ele" v="0.0"/>
		<tag k="highway" v="bus_stop"/>
		<tag k="name" v="Victoria"/>
		<tag k="network" v="Zest"/>
		<tag k="route_ref" v="18;100;110"/>
		<tag k="shelter" v="no"/>
	</node>
	<node id="997522495" lat="43.7563911" lon="7.4773262" version="1">
		<tag k="ele" v="0.0"/>
		<tag k="highway" v="bus_stop"/>
		<tag k="name" v="Le Cirta"/>
		<tag k="route_ref" v="113"/>
	</node>
	<node id="997542021" lat="43.7560205" lon="7.4780726" version="1">
		<tag k="ele" v="0.0"/>
		<tag k="highway" v="bus_stop"/>
		<tag k="name" v="Orchidees"/>
		<tag k="route_ref" v="113"/>
	</node>
	<node id="997546691" lat="43.7575653" lon="7.4738882" version="1">
		<tag k="ele" v="0.0"/>
		<tag k="highway" v="bus_stop"/>
		<tag k="name" v="Cypris"/>
		<tag k="route_ref" v="113"/>
	</node>
	<node id="1079750568" lat="43.7387831" lon="7.4198785" version="1">
		<tag k="bus" v="yes"/>
		<tag k="ele" v="0.0"/>
		<tag k="name" v="Pont Sainte-Dévote"/>
		<tag k="public_transport" v="stop_position"/>
	</node>
	<node id="1079750725" lat="43.7463602" lon="7.4326705" version="1">
		<tag k="bench" v="yes"/>
		<tag k="ele" v="0.0"/>
		<tag k="highway" v="bus_stop"/>
		<tag k="name" v="Plages"/>
		<tag k="network" v="MONACO"/>
		<tag k="operator" v="CAM"/>
		<tag k="shelter" v="yes"/>
	</node>
	<node id="1079750806" lat="43.7518688" lon="7.4384523" version="1">
		<tag k="bus" v="yes"/>
		<tag k="ele" v="0.0"/>
		<tag k="name" v="Varavilla"/>
		<tag k="public_transport" v="stop_position"/>
	</node>
	<node id="1079750894" lat="43.742319" lon="7.4303743" version="1">
		<tag k="bus" v="yes"/>
		<tag k="ele" v="0.0"/>
		<tag k="name" v="Portier"/>
		<tag k="public_transport" v="stop_position"/>
	</node>
	<node id="1079751176" lat="43.7490337" lon="7.4371326" version="1">
		<tag k="bus" v="yes"/>
		<tag k="ele" v="0.0"/>
		<tag k="highway" v="give_way"/>
		<tag k="name" v="Larvotto"/>
		<tag k="public_transport" v="stop_position"/>
		<tag k="tourist_bus" v="yes"/>
	</node>
	<node id="1306034044" lat="43.7322007" lon="7.4196347" version="1">
		<tag k="bus" v="yes"/>
		<tag k="ele" v="0.0"/>
		<tag k="name" v="Place d&#39;Armes (vers Monaco Ville)"/>
		<tag k="public_transport" v="stop_position"/>
	</node>
	<node id="1352289907" lat="43.7498553" lon="7.4369695" version="1">
		<tag k="bus" v="yes"/>
		<tag k="ele" v="0.0"/>
		<tag k="name" v="Saint-Roman (Bus 4)"/>
		<tag k="public_transport" v="stop_position"/>
	</node>
	<node id="1373711177" lat="43.7308354" lon="7.4129717" version="1">
		<tag k="bus" v="yes"/>
		<tag k="ele" v="0.0"/>
		<tag k="name" v="Hôpital"/>
		<tag k="public_transport" v="stop_position"/>
	</node>
	<node id="1685108323" lat="43.7406845" lon="7.4294072" version="1">
		<tag k="bus" v="yes"/>
		<tag k="ele" v="0.0"/>
		<tag k="name" v="Spélugues"/>
		<tag k="public_transport" v="stop_position"/>
	</node>
	<node id="1690213023" lat="43.7306296" lon="7.4175962" version="1">
		<tag k="bus" v="yes"/>
		<tag k="ele" v="0.0"/>
		<tag k="name" v="Fontvieille - Centre Commercial"/>
		<tag k="public_transport" v="stop_position"/>
	</node>
	<node id="1699777655" lat="43.7400009" lon="7.4252761" version="1">
		<tag k="bus" v="yes"/>
		<tag k="ele" v="0.0"/>
		<tag k="name" v="Monte-Carlo (TAM)"/>
		<tag k="public_transport" v="stop_position"/>
	</node>
	<node id="1699777833" lat="43.7410458" lon="7.4250514" version="1">
		<tag k="bus" v="yes"/>
		<tag k="ele" v="0.0"/>
		<tag k="name" v="Crémaillère"/>
		<tag k="public_transport" v="stop_position"/>
	</node>
	<node id="1737326309" lat="43.7381806" lon="7.4270212" version="1">
		<tag k="bus" v="yes"/>
		<tag k="ele" v="0.0"/>
		<tag k="name" v="Terrasses du Casino"/>
		<tag k="public_transport" v="stop_position"/>
	</node>
	<node id="1770577831" lat="43.7338531" lon="7.4216155" version="1">
		<tag k="bus" v="yes"/>
		<tag k="ele" v="0.0"/>
		<tag k="name" v="Stade Nautique"/>
		<tag k="public_transport" v="stop_position"/>
	</node>
	<node id="1770577832" lat="43.7356374" lon="7.4212374" version="1">
		<tag k="bus" v="yes"/>
		<tag k="ele" v="0.0"/>
		<tag k="name" v="Princesse Antoinette"/>
		<tag k="public_transport" v="stop_position"/>
	</node>
	<node id="1770577834" lat="43.7370724" lon="7.4240511" version="1">
		<tag k="bus" v="yes"/>
		<tag k="ele" v="0.0"/>
		<tag k="name" v="Kennedy"/>
		<tag k="public_transport" v="stop_position"/>
		<tag k="tourist_bus" v="yes"/>
	</node>
	<node id="1770577838" lat="43.7376586" lon="7.4278145" version="1">
		<tag k="bus" v="yes"/>
		<tag k="ele" v="0.0"/>
		<tag k="highway" v="bus_stop"/>
		<tag k="name" v="Auditorium Rainier III"/>
		<tag k="public_transport" v="stop_position"/>
	</node>
	<node id="1770577845" lat="43.7372747" lon="7.4237338" version="1">
		<tag k="bus" v="yes"/>
		<tag k="ele" v="0.0"/>
		<tag k="name" v="Ostende"/>
		<tag k="public_transport" v="stop_position"/>
	</node>
	<node id="1774994951" lat="43.739479" lon="7.4225523" version="1">
		<tag k="bus" v="yes"/>
		<tag k="ele" v="0.0"/>
		<tag k="name" v="Roqueville"/>
		<tag k="public_transport" v="stop_position"/>
	</node>
	<node id="1774994953" lat="43.7370264" lon="7.4166996" version="1">
		<tag k="bus" v="yes"/>
		<tag k="ele" v="0.0"/>
		<tag k="highway" v="bus_stop"/>
		<tag k="name" v="Moneghetti"/>
		<tag k="public_transport" v="stop_position"/>
	</node>
	<node id="1776309816" lat="43.7367412" lon="7.4194139" version="1">
		<tag k="bus" v="yes"/>
		<tag k="ele" v="0.0"/>
		<tag k="highway" v="bus_stop"/>
		<tag k="name" v="Louis Aureglia"/>
		<tag k="public_transport" v="stop_position"/>
	</node>
	<node id="1776309843" lat="43.7354852" lon="7.4175041" version="1">
		<tag k="bus" v="yes"/>
		<tag k="ele" v="0.0"/>
		<tag k="highway" v="bus_stop"/>
		<tag k="name" v="Castelleretto"/>
		<tag k="public_transport" v="stop_position"/>
	</node>
	<node id="1776309872" lat="43.72649" lon="7.4173481" version="1">
		<tag k="bus" v="yes"/>
		<tag k="ele" v="0.0"/>
		<tag k="highway" v="bus_stop"/>
		<tag k="name" v="Héliport"/>
		<tag k="public_transport" v="stop_position"/>
	</node>
	<node id="1776309874" lat="43.7286413" lon="7.4178833" version="1">
		<tag k="bus" v="yes"/>
		<tag k="ele" v="0.0"/>
		<tag k="name" v="Papalins"/>
		<tag k="public_transport" v="stop_position"/>
	</node>
	<node id="1776309882" lat="43.7302849" lon="7.4173654" version="1">
		<tag k="bus" v="yes"/>
		<tag k="ele" v="0.0"/>
		<tag k="name" v="Port de Fontvieille"/>
		<tag k="public_transport" v="stop_position"/>
	</node>
	<node id="1778433990" lat="43.7304366" lon="7.4130898" version="1">
		<tag k="bus" v="yes"/>
		<tag k="ele" v="0.0"/>
		<tag k="highway" v="bus_stop"/>
		<tag k="name" v="Pasteur"/>
		<tag k="public_transport" v="stop_position"/>
	</node>
	<node id="1778433991" lat="43.7317743" lon="7.4146081" version="1">
		<tag k="bus" v="yes"/>
		<tag k="ele" v="0.0"/>
		<tag k="name" v="Observatoire"/>
		<tag k="public_transport" v="stop_position"/>
	</node>
	<node id="1778433993" lat="43.7356187" lon="7.4166288" version="1">
		<tag k="bus" v="yes"/>
		<tag k="ele" v="0.0"/>
		<tag k="name" v="Bosio"/>
		<tag k="public_transport" v="stop_position"/>
	</node>
	<node id="1778433994" lat="43.7359673" lon="7.4168173" version="1">
		<tag k="bus" v="yes"/>
		<tag k="ele" v="0.0"/>
		<tag k="name" v="Bosio"/>
		<tag k="public_transport" v="stop_position"/>
	</node>
	<node id="1778434196" lat="43.7439999" lon="7.4312553" version="1">
		<tag k="bus" v="yes"/>
		<tag k="ele" v="0.0"/>
		<tag k="highway" v="bus_stop"/>
		<tag k="name" v="Grimaldi Forum/Villa Sauber"/>
		<tag k="network" v="MONACO"/>
		<tag k="operator" v="CAM"/>
		<tag k="public_transport" v="stop_position"/>
	</node>
	<node id="1778434197" lat="43.7482669" lon="7.435434" version="1">
		<tag k="bus" v="yes"/>
		<tag k="ele" v="0.0"/>
		<tag k="name" v="Sea Club"/>
		<tag k="public_transport" v="stop_position"/>
	</node>
	<node id="1778434285" lat="43.7442999" lon="7.4311497" version="1">
		<tag k="bench" v="yes"/>
		<tag k="bus" v="yes"/>
		<tag k="covered" v="yes"/>
		<tag k="ele" v="0.0"/>
		<tag k="highway" v="bus_stop"/>
		<tag k="name" v="Grimaldi Forum/Villa Sauber"/>
		<tag k="network" v="MONACO"/>
		<tag k="operator" v="CAM"/>
		<tag k="public_transport" v="stop_position"/>
		<tag k="shelter" v="yes"/>
		<tag k="tourist_bus" v="yes"/>
	</node>
	<node id="1780610244" lat="43.7340107" lon="7.4139903" version="1">
		<tag k="bus" v="yes"/>
		<tag k="ele" v="0.0"/>
		<tag k="name" v="Hector Otto"/>
		<tag k="public_transport" v="stop_position"/>
	</node>
	<node id="1868767857" lat="43.737404" lon="7.4187165" version="1">
		<tag k="bus" v="yes"/>
		<tag k="ele" v="0.0"/>
		<tag k="name" v="Belgique"/>
		<tag k="public_transport" v="stop_position"/>
	</node>
	<node id="1871958568" lat="43.7544153" lon="7.4483111" version="1">
		<tag k="ele" v="0.0"/>
		<tag k="name" v="Monte-Carlo Country Club"/>
		<tag k="operator" v="SNCF"/>
		<tag k="railway" v="station"/>
		<tag k="uic_ref" v="8733859"/>
	</node>
	<node id="1872357146" lat="43.7321253" lon="7.418424" version="1">
		<tag k="bus" v="yes"/>
		<tag k="ele" v="0.0"/>
		<tag k="name" v="Place d&#39;Armes (Charles III)"/>
		<tag k="public_transport" v="stop_position"/>
	</node>
	<node id="1872357148" lat="43.7322507" lon="7.4187676" version="1">
		<tag k="bus" v="yes"/>
		<tag k="ele" v="0.0"/>
		<tag k="name" v="Place d&#39;Armes (Charles III)"/>
		<tag k="public_transport" v="stop_position"/>
	</node>
	<node id="2153445075" lat="43.7314686" lon="7.4251985" version="1">
		<tag k="bus" v="yes"/>
		<tag k="ele" v="0.0"/>
		<tag k="name" v="Monaco Ville (le Rocher)"/>
		<tag k="public_transport" v="stop_position"/>
	</node>
	<node id="2165282734" lat="43.7293364" lon="7.4107962" version="1">
		<tag k="bus" v="yes"/>
		<tag k="ele" v="0.0"/>
		<tag k="name" v="Athanée"/>
		<tag k="public_transport" v="stop_position"/>
	</node>
	<node id="2185515252" lat="43.7322172" lon="7.4204136" version="1">
		<tag k="bus" v="yes"/>
		<tag k="ele" v="0.0"/>
		<tag k="name" v="Place d&#39;Armes (Port)"/>
		<tag k="public_transport" v="stop_position"/>
	</node>
	<node id="2185515257" lat="43.7373517" lon="7.4188731" version="1">
		<tag k="bus" v="yes"/>
		<tag k="ele" v="0.0"/>
		<tag k="name" v="Belgique"/>
		<tag k="public_transport" v="stop_position"/>
	</node>
	<node id="2185515259" lat="43.7315401" lon="7.4152885" version="1">
		<tag k="ele" v="0.0"/>
		<tag k="highway" v="bus_stop"/>
		<tag k="name" v="La Vigie"/>
	</node>
	<node id="2185515266" lat="43.7323283" lon="7.4229901" version="1">
		<tag k="bus" v="yes"/>
		<tag k="ele" v="0.0"/>
		<tag k="name" v="Princesse Stéphanie"/>
		<tag k="public_transport" v="stop_position"/>
	</node>
	<node id="2185515267" lat="43.7356839" lon="7.419757" version="1">
		<tag k="ele" v="0.0"/>
		<tag k="highway" v="bus_stop"/>
		<tag k="name" v="Princesse Florestine"/>
	</node>
	<node id="2185515268" lat="43.7369308" lon="7.4188" version="1">
		<tag k="bus" v="yes"/>
		<tag k="ele" v="0.0"/>
		<tag k="name" v="Belgique"/>
		<tag k="public_transport" v="stop_position"/>
	</node>
	<node id="2189614142" lat="43.7469272" lon="7.4313758" version="1">
		<tag k="bus" v="yes"/>
		<tag k="ele" v="0.0"/>
		<tag k="name" v="La Rousse"/>
		<tag k="public_transport" v="stop_position"/>
	</node>
	<node id="2189614144" lat="43.7487346" lon="7.4340425" version="1">
		<tag k="ele" v="0.0"/>
		<tag k="highway" v="bus_stop"/>
		<tag k="name" v="Carmes"/>
	</node>
	<node id="2189614146" lat="43.7402566" lon="7.4279173" version="1">
		<tag k="ele" v="0.0"/>
		<tag k="highway" v="bus_stop"/>
		<tag k="name" v="Place du Casino"/>
	</node>
	<node id="2189614147" lat="43.7473972" lon="7.4318085" version="1">
		<tag k="bus" v="yes"/>
		<tag k="ele" v="0.0"/>
		<tag k="name" v="La Rousse"/>
		<tag k="public_transport" v="stop_position"/>
	</node>
	<node id="2189614149" lat="43.7454188" lon="7.4294376" version="1">
		<tag k="bus" v="yes"/>
		<tag k="ele" v="0.0"/>
		<tag k="name" v="Place des Moulins"/>
		<tag k="public_transport" v="stop_position"/>
	</node>
	<node id="2189614151" lat="43.7455379" lon="7.4295908" version="1">
		<tag k="bus" v="yes"/>
		<tag k="ele" v="0.0"/>
		<tag k="name" v="Place des Moulins"/>
		<tag k="public_transport" v="stop_position"/>
	</node>
	<node id="2189614152" lat="43.7396758" lon="7.4232868" version="1">
		<tag k="ele" v="0.0"/>
		<tag k="highway" v="bus_stop"/>
	</node>
	<node id="2189614154" lat="43.746857" lon="7.4337335" version="1">
		<tag k="ele" v="0.0"/>
		<tag k="highway" v="bus_stop"/>
		<tag k="name" v="Plages"/>
		<tag k="network" v="MONACO"/>
		<tag k="operator" v="CAM"/>
	</node>
	<node id="2189614155" lat="43.7374239" lon="7.4245213" version="1">
		<tag k="bus" v="yes"/>
		<tag k="ele" v="0.0"/>
		<tag k="name" v="Ostende"/>
		<tag k="public_transport" v="stop_position"/>
	</node>
	<node id="2189614157" lat="43.7484807" lon="7.4335274" version="1">
		<tag k="ele" v="0.0"/>
		<tag k="highway" v="bus_stop"/>
		<tag k="name" v="Carmes"/>
	</node>
	<node id="2189614162" lat="43.7430537" lon="7.4277425" version="1">
		<tag k="bus" v="yes"/>
		<tag k="ele" v="0.0"/>
		<tag k="name" v="Saint-Charles"/>
		<tag k="public_transport" v="stop_position"/>
	</node>
	<node id="2189620623" lat="43.734375" lon="7.4150316" version="1">
		<tag k="ele" v="0.0"/>
		<tag k="highway" v="bus_stop"/>
		<tag k="name" v="Rotondes"/>
	</node>
	<node id="2189620625" lat="43.7354857" lon="7.4160688" version="1">
		<tag k="ele" v="0.0"/>
		<tag k="highway" v="bus_stop"/>
		<tag k="name" v="Rotondes"/>
	</node>
	<node id="2189620629" lat="43.7317874" lon="7.4136488" version="1">
		<tag k="bus" v="yes"/>
		<tag k="ele" v="0.0"/>
		<tag k="name" v="Jardin Exotique"/>
		<tag k="public_transport" v="stop_position"/>
	</node>
	<node id="2189620630" lat="43.7340964" lon="7.4148459" version="1">
		<tag k="ele" v="0.0"/>
		<tag k="highway" v="bus_stop"/>
		<tag k="name" v="Rotondes"/>
	</node>
	<node id="2197630989" lat="43.7657135" lon="7.4825863" version="1">
		<tag k="ele" v="0.0"/>
		<tag k="highway" v="bus_stop"/>
		<tag k="name" v="Saint-Joseph"/>
	</node>
	<node id="2208183904" lat="43.7632778" lon="7.4851757" version="1">
		<tag k="ele" v="0.0"/>
		<tag k="highway" v="bus_stop"/>
		<tag k="name" v="Pont de l&#39;Union"/>
	</node>
	<node id="2208184653" lat="43.7605636" lon="7.4782783" version="1">
		<tag k="ele" v="0.0"/>
		<tag k="highway" v="bus_stop"/>
		<tag k="name" v="Bien Située"/>
	</node>
	<node id="2208203831" lat="43.76225" lon="7.4725849" version="1">
		<tag k="ele" v="0.0"/>
		<tag k="highway" v="bus_stop"/>
		<tag k="name" v="1er Hameau"/>
	</node>
	<node id="2208203832" lat="43.7626407" lon="7.4718269" version="1">
		<tag k="ele" v="0.0"/>
		<tag k="highway" v="bus_stop"/>
		<tag k="name" v="1er Hameau"/>
	</node>
	<node id="2208203833" lat="43.7601575" lon="7.4706744" version="1">
		<tag k="bench" v="yes"/>
		<tag k="ele" v="0.0"/>
		<tag k="highway" v="bus_stop"/>
		<tag k="name" v="2e Hameau"/>
		<tag k="network" v="Zest"/>
		<tag k="shelter" v="yes"/>
	</node>
	<node id="2208211374" lat="43.7589175" lon="7.4673486" version="1">
		<tag k="ele" v="0.0"/>
		<tag k="highway" v="bus_stop"/>
		<tag k="name" v="Torraca"/>
	</node>
	<node id="2208211375" lat="43.7594722" lon="7.4664973" version="1">
		<tag k="ele" v="0.0"/>
		<tag k="highway" v="bus_stop"/>
		<tag k="name" v="Torraca"/>
	</node>
	<node id="2208211376" lat="43.7607785" lon="7.470936" version="1">
		<tag k="bench" v="yes"/>
		<tag k="ele" v="0.0"/>
		<tag k="highway" v="bus_stop"/>
		<tag k="name" v="2e Hameau"/>
		<tag k="shelter" v="yes"/>
	</node>
	<node id="2208212679" lat="43.7590345" lon="7.4703833" version="1">
		<tag k="ele" v="0.0"/>
		<tag k="highway" v="bus_stop"/>
		<tag k="name" v="Riva Bella"/>
	</node>
	<node id="2208216809" lat="43.7604512" lon="7.4650923" version="1">
		<tag k="ele" v="0.0"/>
		<tag k="highway" v="bus_stop"/>
		<tag k="name" v="Massolin"/>
	</node>
	<node id="2208220044" lat="43.761311" lon="7.4635288" version="1">
		<tag k="ele" v="0.0"/>
		<tag k="highway" v="bus_stop"/>
		<tag k="name" v="Massolin"/>
	</node>
	<node id="2208220045" lat="43.7598719" lon="7.4653355" version="1">
		<tag k="ele" v="0.0"/>
		<tag k="highway" v="bus_stop"/>
		<tag k="name" v="Massolin"/>
	</node>
	<node id="2208221199" lat="43.7623096" lon="7.4623988" version="1">
		<tag k="ele" v="0.0"/>
		<tag k="highway" v="bus_stop"/>
		<tag k="name" v="1er Escalier"/>
	</node>
	<node id="2208223574" lat="43.7626509" lon="7.4613006" version="1">
		<tag k="ele" v="0.0"/>
		<tag k="highway" v="bus_stop"/>
		<tag k="name" v="1er Escalier"/>
	</node>
	<node id="2208224569" lat="43.7622146" lon="7.4591566" version="1">
		<tag k="ele" v="0.0"/>
		<tag k="highway" v="bus_stop"/>
		<tag k="name" v="2e Escalier"/>
	</node>
	<node id="2208230077" lat="43.7621341" lon="7.4582798" version="1">
		<tag k="ele" v="0.0"/>
		<tag k="highway" v="bus_stop"/>
		<tag k="name" v="2e Escalier"/>
	</node>
	<node id="2208231140" lat="43.7623709" lon="7.4551544" version="1">
		<tag k="ele" v="0.0"/>
		<tag k="highway" v="bus_stop"/>
		<tag k="name" v="Datcha"/>
	</node>
	<node id="2208239538" lat="43.7605419" lon="7.4527675" version="1">
		<tag k="ele" v="0.0"/>
		<tag k="highway" v="bus_stop"/>
		<tag k="name" v="Les 4 Chemins"/>
	</node>
	<node id="2208239539" lat="43.7627182" lon="7.4540412" version="1">
		<tag k="ele" v="0.0"/>
		<tag k="highway" v="bus_stop"/>
		<tag k="name" v="Ramingao"/>
	</node>
	<node id="2208239540" lat="43.7632891" lon="7.4540167" version="1">
		<tag k="ele" v="0.0"/>
		<tag k="highway" v="bus_stop"/>
		<tag k="name" v="Ramingao"/>
	</node>
	<node id="2208239607" lat="43.7598222" lon="7.4520947" version="1">
		<tag k="ele" v="0.0"/>
		<tag k="highway" v="bus_stop"/>
		<tag k="name" v="Les 4 Chemins"/>
	</node>
	<node id="2793583449" lat="43.7236136" lon="7.3874827" version="1">
		<tag k="bench" v="no"/>
		<tag k="covered" v="no"/>
		<tag k="ele" v="0.0"/>
		<tag k="highway" v="bus_stop"/>
		<tag k="name" v="Deux Tunnels"/>
		<tag k="operator" v="Lignes d&#39;Azur N°100"/>
		<tag k="ref" v="100"/>
		<tag k="shelter" v="no"/>
	</node>
	<node id="3158178423" lat="43.7271746" lon="7.3836726" version="1">
		<tag k="ele" v="0.0"/>
		<tag k="highway" v="bus_stop"/>
		<tag k="name" v="Chapelle de Saint-Laurent"/>
	</node>
	<node id="3465728159" lat="43.7502963" lon="7.4373928" version="1">
		<tag k="bus" v="yes"/>
		<tag k="ele" v="0.0"/>
		<tag k="name" v="Saint-Roman"/>
		<tag k="public_transport" v="stop_position"/>
	</node>
	<node id="3545215285" lat="43.7452749" lon="7.4000632" version="1">
		<tag k="ele" v="0.0"/>
		<tag k="highway" v="bus_stop"/>
		<tag k="name" v="La Turbie Marie"/>
	</node>
	<node id="3559725761" lat="43.7249884" lon="7.3958683" version="1">
		<tag k="ele" v="0.0"/>
		<tag k="highway" v="bus_stop"/>
	</node>
	<node id="3805333988" lat="43.7497672" lon="7.4372554" version="1">
		<tag k="bus" v="yes"/>
		<tag k="ele" v="0.0"/>
		<tag k="name" v="Saint-Roman (Bus 1)"/>
		<tag k="public_transport" v="stop_position"/>
	</node>
	<node id="3941531168" lat="43.7307022" lon="7.3634657" version="1">
		<tag k="bench" v="yes"/>
		<tag k="covered" v="yes"/>
		<tag k="ele" v="0.0"/>
		<tag k="highway" v="bus_stop"/>
		<tag k="shelter" v="no"/>
	</node>
	<node id="3943148923" lat="43.7308986" lon="7.363278" version="1">
		<tag k="bench" v="no"/>
		<tag k="covered" v="no"/>
		<tag k="ele" v="0.0"/>
		<tag k="highway" v="bus_stop"/>
		<tag k="shelter" v="no"/>
	</node>
	<node id="4002288098" lat="43.7204509" lon="7.3765136" version="1">
		<tag k="bench" v="no"/>
		<tag k="covered" v="no"/>
		<tag k="ele" v="0.0"/>
		<tag k="highway" v="bus_stop"/>
		<tag k="name" v="Cap Estel"/>
		<tag k="operator" v="Lignes d&#39;Azur N°100"/>
		<tag k="shelter" v="no"/>
	</node>
	<node id="4002288099" lat="43.7206661" lon="7.3773048" version="1">
		<tag k="bench" v="no"/>
		<tag k="covered" v="no"/>
		<tag k="ele" v="0.0"/>
		<tag k="highway" v="bus_stop"/>
		<tag k="name" v="Cap Estel"/>
		<tag k="operator" v="Lignes d&#39;Azur N°100"/>
		<tag k="shelter" v="no"/>
	</node>
	<node id="4002288101" lat="43.7232435" lon="7.3798366" version="1">
		<tag k="bench" v="no"/>
		<tag k="covered" v="yes"/>
		<tag k="ele" v="0.0"/>
		<tag k="highway" v="bus_stop"/>
		<tag k="name" v="Parking Saint-Laurent d&#39;Èze"/>
		<tag k="operator" v="Lignes d&#39;Azur N°100"/>
		<tag k="shelter" v="no"/>
	</node>
	<node id="4002288102" lat="43.7230304" lon="7.3800695" version="1">
		<tag k="bench" v="no"/>
		<tag k="covered" v="no"/>
		<tag k="ele" v="0.0"/>
		<tag k="highway" v="bus_stop"/>
		<tag k="name" v="Parking Saint-Laurent d&#39;Èze"/>
		<tag k="operator" v="Lignes d&#39;Azur N°100"/>
		<tag k="shelter" v="no"/>
	</node>
	<node id="4002332290" lat="43.7245433" lon="7.3817014" version="1">
		<tag k="bench" v="yes"/>
		<tag k="covered" v="yes"/>
		<tag k="ele" v="0.0"/>
		<tag k="highway" v="bus_stop"/>
		<tag k="name" v="Gianton"/>
		<tag k="operator" v="Lignes d&#39;Azur N°100"/>
		<tag k="shelter" v="yes"/>
	</node>
	<node id="4002332291" lat="43.7238777" lon="7.3822612" version="1">
		<tag k="bench" v="no"/>
		<tag k="covered" v="no"/>
		<tag k="ele" v="0.0"/>
		<tag k="highway" v="bus_stop"/>
		<tag k="name" v="Gianton"/>
		<tag k="operator" v="Lignes d&#39;Azur N°100"/>
		<tag k="shelter" v="no"/>
	</node>
	<node id="4002332292" lat="43.7236754" lon="7.3881419" version="1">
		<tag k="bench" v="no"/>
		<tag k="covered" v="no"/>
		<tag k="ele" v="0.0"/>
		<tag k="highway" v="bus_stop"/>
		<tag k="name" v="Deux Tunnels"/>
		<tag k="operator" v="Lignes d&#39;Azur N°100"/>
		<tag k="shelter" v="no"/>
	</node>
	<node id="4002373049" lat="43.7230022" lon="7.3960661" version="1">
		<tag k="bench" v="no"/>
		<tag k="covered" v="no"/>
		<tag k="ele" v="0.0"/>
		<tag k="highway" v="bus_stop"/>
		<tag k="name" v="Edmond&#39;s Cap d&#39;Ail"/>
		<tag k="operator" v="Lignes d&#39;Azur N°100"/>
		<tag k="shelter" v="no"/>
	</node>
	<node id="4002373050" lat="43.7220712" lon="7.3982348" version="1">
		<tag k="bench" v="yes"/>
		<tag k="covered" v="yes"/>
		<tag k="ele" v="0.0"/>
		<tag k="highway" v="bus_stop"/>
		<tag k="name" v="Guillaume Apollinaire"/>
		<tag k="operator" v="Lignes d&#39;Azur N°100"/>
		<tag k="shelter" v="yes"/>
	</node>
	<node id="4002373051" lat="43.7219103" lon="7.3995276" version="1">
		<tag k="bench" v="no"/>
		<tag k="covered" v="no"/>
		<tag k="ele" v="0.0"/>
		<tag k="highway" v="bus_stop"/>
		<tag k="name" v="La Source"/>
		<tag k="operator" v="Lignes d&#39;Azur N°100"/>
		<tag k="shelter" v="no"/>
	</node>
	<node id="4002373052" lat="43.7217551" lon="7.4038808" version="1">
		<tag k="bench" v="no"/>
		<tag k="covered" v="no"/>
		<tag k="ele" v="0.0"/>
		<tag k="highway" v="bus_stop"/>
		<tag k="name" v="L&#39;Église"/>
		<tag k="operator" v="Lignes d&#39;Azur N°100"/>
		<tag k="shelter" v="no"/>
	</node>
	<node id="4002373053" lat="43.7219853" lon="7.4048297" version="1">
		<tag k="bench" v="no"/>
		<tag k="covered" v="no"/>
		<tag k="ele" v="0.0"/>
		<tag k="highway" v="bus_stop"/>
		<tag k="name" v="L&#39;Église"/>
		<tag k="operator" v="Lignes d&#39;Azur N°100"/>
		<tag k="shelter" v="no"/>
	</node>
	<node id="4002784844" lat="43.7224716" lon="7.4075369" version="1">
		<tag k="bench" v="yes"/>
		<tag k="covered" v="yes"/>
		<tag k="ele" v="0.0"/>
		<tag k="highway" v="bus_stop"/>
		<tag k="name" v="Hôtel de Ville"/>
		<tag k="operator" v="Lignes d&#39;Azur N°100"/>
		<tag k="shelter" v="yes"/>
	</node>
	<node id="4002784845" lat="43.7226042" lon="7.4067991" version="1">
		<tag k="bench" v="yes"/>
		<tag k="covered" v="yes"/>
		<tag k="ele" v="0.0"/>
		<tag k="highway" v="bus_stop"/>
		<tag k="name" v="Hôtel de Ville"/>
		<tag k="operator" v="Lignes d&#39;Azur N°100"/>
		<tag k="shelter" v="yes"/>
	</node>
	<node id="4002784846" lat="43.7241124" lon="7.4086552" version="1">
		<tag k="bench" v="yes"/>
		<tag k="covered" v="yes"/>
		<tag k="ele" v="0.0"/>
		<tag k="highway" v="bus_stop"/>
		<tag k="name" v="Le Loup Blanc"/>
		<tag k="shelter" v="yes"/>
	</node>
	<node id="4002784847" lat="43.7249292" lon="7.4093335" version="1">
		<tag k="bench" v="no"/>
		<tag k="covered" v="no"/>
		<tag k="ele" v="0.0"/>
		<tag k="highway" v="bus_stop"/>
		<tag k="name" v="Le Loup Blanc"/>
		<tag k="operator" v="Lignes d&#39;Azur N°100"/>
		<tag k="shelter" v="no"/>
	</node>
	<node id="4002784848" lat="43.7265168" lon="7.4111094" version="1">
		<tag k="bench" v="yes"/>
		<tag k="covered" v="yes"/>
		<tag k="ele" v="0.0"/>
		<tag k="highway" v="bus_stop"/>
		<tag k="name" v="Liberté"/>
		<tag k="operator" v="Lignes d&#39;Azur N°100"/>
		<tag k="shelter" v="yes"/>
	</node>
	<node id="4002784849" lat="43.7273299" lon="7.4115065" version="1">
		<tag k="bench" v="no"/>
		<tag k="covered" v="no"/>
		<tag k="ele" v="0.0"/>
		<tag k="highway" v="bus_stop"/>
		<tag k="name" v="Liberté"/>
		<tag k="operator" v="Lignes d&#39;Azur N°100"/>
		<tag k="shelter" v="no"/>
	</node>
	<node id="4002899215" lat="43.7296771" lon="7.4136508" version="1">
		<tag k="bench" v="no"/>
		<tag k="covered" v="no"/>
		<tag k="ele" v="0.0"/>
		<tag k="highway" v="bus_stop"/>
		<tag k="name" v="Cimetière"/>
		<tag k="operator" v="Lignes d&#39;Azur N°100"/>
		<tag k="shelter" v="no"/>
	</node>
	<node id="4002899216" lat="43.7293373" lon="7.4129418" version="1">
		<tag k="bench" v="yes"/>
		<tag k="covered" v="yes"/>
		<tag k="ele" v="0.0"/>
		<tag k="highway" v="bus_stop"/>
		<tag k="name" v="Cimetière"/>
		<tag k="operator" v="Lignes d&#39;Azur N°100"/>
		<tag k="shelter" v="yes"/>
	</node>
	<node id="4005841482" lat="43.7524642" lon="7.4393574" version="1">
		<tag k="ele" v="0.0"/>
		<tag k="highway" v="bus_stop"/>
		<tag k="name" v="Saint-Roman"/>
		<tag k="operator" v="Lignes d&#39;Azur, N°100"/>
	</node>
	<node id="4005947495" lat="43.7543864" lon="7.4469358" version="1">
		<tag k="ele" v="0.0"/>
		<tag k="highway" v="bus_stop"/>
		<tag k="name" v="La Tranchée"/>
		<tag k="operator" v="Lignes d&#39;Azur N°100"/>
	</node>
	<node id="4005947496" lat="43.7551575" lon="7.4477347" version="1">
		<tag k="ele" v="0.0"/>
		<tag k="highway" v="bus_stop"/>
		<tag k="name" v="La Tranchée"/>
		<tag k="operator" v="Lignes d&#39;Azur N°100"/>
	</node>
	<node id="4005947497" lat="43.7570632" lon="7.449172" version="1">
		<tag k="ele" v="0.0"/>
		<tag k="highway" v="bus_stop"/>
		<tag k="name" v="La Boucherie"/>
		<tag k="operator" v="Lignes d&#39;Azur N°100"/>
	</node>
	<node id="4005947498" lat="43.7583248" lon="7.4503956" version="1">
		<tag k="ele" v="0.0"/>
		<tag k="highway" v="bus_stop"/>
		<tag k="name" v="La Boucherie"/>
		<tag k="operator" v="Lignes d&#39;Azur N°100"/>
	</node>
	<node id="4005993239" lat="43.7625154" lon="7.4855829" version="1">
		<tag k="ele" v="0.0"/>
		<tag k="highway" v="bus_stop"/>
		<tag k="name" v="Pont de l&#39;Union"/>
		<tag k="operator" v="Lignes d&#39;Azur N°100"/>
	</node>
	<node id="4154007315" lat="43.7208675" lon="7.3966149" version="1">
		<tag k="ele" v="0.0"/>
		<tag k="highway" v="bus_stop"/>
		<tag k="name" v="Bois Joli"/>
	</node>
	<node id="4154007320" lat="43.7221587" lon="7.3966763" version="1">
		<tag k="ele" v="0.0"/>
		<tag k="highway" v="bus_stop"/>
		<tag k="name" v="Les Cigognes"/>
	</node>
	<node id="4185485489" lat="43.7430446" lon="7.425273" version="1">
		<tag k="amenity" v="bus_station"/>
		<tag k="ele" v="0.0"/>
	</node>
	<node id="4317327173" lat="43.7572597" lon="7.4813578" version="1">
		<tag k="ele" v="0.0"/>
		<tag k="highway" v="bus_stop"/>
	</node>
	<node id="4937466456" lat="43.7335519" lon="7.4154083" version="1">
		<tag k="ele" v="0.0"/>
		<tag k="highway" v="bus_stop"/>
		<tag k="name" v="Parc Princesse Antoinette"/>
	</node>
	<node id="4937466458" lat="43.733491" lon="7.4155073" version="1">
		<tag k="ele" v="0.0"/>
		<tag k="highway" v="bus_stop"/>
		<tag k="name" v="Parc Princesse Antoinette"/>
	</node>
	<node id="4937466467" lat="43.7396515" lon="7.4231385" version="1">
		<tag k="bus" v="yes"/>
		<tag k="ele" v="0.0"/>
		<tag k="name" v="Roqueville"/>
		<tag k="public_transport" v="stop_position"/>
	</node>
	<node id="4937756563" lat="43.7270799" lon="7.4143873" version="1">
		<tag k="bus" v="yes"/>
		<tag k="ele" v="0.0"/>
		<tag k="name" v="Stade Louis II"/>
		<tag k="public_transport" v="stop_position"/>
		<tag k="tourist_bus" v="yes"/>
	</node>
	<node id="4938342167" lat="43.7367393" lon="7.4185426" version="1">
		<tag k="bus" v="yes"/>
		<tag k="ele" v="0.0"/>
		<tag k="name" v="Belgique"/>
		<tag k="public_transport" v="stop_position"/>
	</node>
	<node id="4938436907" lat="43.7310815" lon="7.4256919" version="1">
		<tag k="ele" v="0.0"/>
		<tag k="highway" v="bus_stop"/>
		<tag k="name" v="Musée Océanographique"/>
	</node>
	<node id="4938436910" lat="43.7311303" lon="7.4213799" version="1">
		<tag k="ele" v="0.0"/>
		<tag k="highway" v="bus_stop"/>
		<tag k="name" v="Place du Palais"/>
	</node>
	<node id="4938436914" lat="43.7340304" lon="7.4284905" version="1">
		<tag k="ele" v="0.0"/>
		<tag k="highway" v="bus_stop"/>
		<tag k="name" v="Digue Croisières"/>
	</node>
	<node id="4938969808" lat="43.7378532" lon="7.4267472" version="1">
		<tag k="ele" v="0.0"/>
		<tag k="highway" v="bus_stop"/>
		<tag k="name" v="Terrasses du Casino"/>
	</node>
	<node id="4938969812" lat="43.7294485" lon="7.41619" version="1">
		<tag k="bus" v="yes"/>
		<tag k="ele" v="0.0"/>
		<tag k="name" v="Albert II"/>
		<tag k="public_transport" v="stop_position"/>
	</node>
	<node id="4939084253" lat="43.7480698" lon="7.4349849" version="1">
		<tag k="bus" v="yes"/>
		<tag k="ele" v="0.0"/>
		<tag k="name" v="Sea Club"/>
		<tag k="public_transport" v="stop_position"/>
	</node>
	<relation id="-193177" version="1">
		<member type="node" ref="4002288102" role="stop"/>
		<member type="node" ref="-192987" role="stop"/>
		<member type="node" ref="3943148923" role="stop"/>
		<tag k="name" v="MoSTtoFrance1"/>
		<tag k="operator" v="MoST"/>
		<tag k="ref" v="M1:France"/>
		<tag k="route" v="bus"/>
		<tag k="type" v="route"/>
	</relation>
	<relation id="-193179" version="1">
		<member type="node" ref="3941531168" role="stop"/>
		<member type="node" ref="3158178423" role="stop"/>
		<member type="node" ref="4002288101" role="stop"/>
		<tag k="name" v="MoSTtoEze"/>
		<tag k="operator" v="MoST"/>
		<tag k="ref" v="M1:Eze"/>
		<tag k="route" v="bus"/>
		<tag k="type" v="route"/>
	</relation>
	<relation id="-193181" version="1">
		<member type="node" ref="642522545" role="stop"/>
		<member type="node" ref="642466130" role="stop"/>
		<member type="node" ref="-192993" role="stop"/>
		<member type="node" ref="642295507" role="stop"/>
		<member type="node" ref="33015605" role="stop"/>
		<member type="node" ref="-192971" role="stop"/>
		<tag k="from" v="France"/>
		<tag k="name" v="MoSTtoItaly"/>
		<tag k="operator" v="MoST"/>
		<tag k="ref" v="M0:Italy"/>
		<tag k="route" v="train"/>
		<tag k="to" v="Italy"/>
		<tag k="type" v="route"/>
	</relation>
	<relation id="-193183" version="1">
		<member type="node" ref="3545215285" role="stop"/>
		<member type="node" ref="3943148923" role="stop"/>
		<tag k="name" v="MoSTtoFrance2"/>
		<tag k="operator" v="MoST"/>
		<tag k="ref" v="M2:France"/>
		<tag k="route" v="bus"/>
		<tag k="type" v="route"/>
	</relation>
	<relation id="-193185" version="1">
		<member type="node" ref="2208239539" role="stop"/>
		<member type="node" ref="2208230077" role="stop"/>
		<member type="node" ref="2208223574" role="stop"/>
		<member type="node" ref="2208220045" role="stop"/>
		<member type="node" ref="997546691" role="stop"/>
		<member type="node" ref="997542021" role="stop"/>
		<member type="node" ref="963328479" role="stop"/>
		<member type="node" ref="4005993239" role="stop"/>
		<tag k="name" v="MoSTtoPontUnion"/>
		<tag k="operator" v="MoST"/>
		<tag k="ref" v="M5:PontUnion"/>
		<tag k="route" v="bus"/>
		<tag k="type" v="route"/>
	</relation>
	<relation id="-193187" version="1">
		<member type="node" ref="2208183904" role="stop"/>
		<member type="node" ref="4317327173" role="stop"/>
		<member type="node" ref="997522495" role="stop"/>
		<member type="node" ref="963237346" role="stop"/>
		<member type="node" ref="2208221199" role="stop"/>
		<member type="node" ref="2208224569" role="stop"/>
		<member type="node" ref="2208239540" role="stop"/>
		<tag k="name" v="MoSTtoRamingao"/>
		<tag k="operator" v="MoST"/>
		<tag k="ref" v="M5:Ramingao"/>
		<tag k="route" v="bus"/>
		<tag k="type" v="route"/>
	</relation>
	<relation id="-193189" version="1">
		<member type="node" ref="3545215285" role="stop"/>
		<member type="node" ref="-193005" role="stop"/>
		<member type="node" ref="-192973" role="stop"/>
		<member type="node" ref="-193003" role="stop"/>
		<member type="node" ref="-192991" role="stop"/>
		<member type="node" ref="-192969" role="stop"/>
		<member type="node" ref="1373711177" role="stop"/>
		<tag k="name" v="HospitalToTurbie"/>
		<tag k="operator" v="MoST"/>
		<tag k="ref" v="M3:Turbie"/>
		<tag k="route" v="bus"/>
		<tag k="type" v="route"/>
	</relation>
	<relation id="-193191" version="1">
		<member type="node" ref="-192985" role="stop"/>
		<member type="node" ref="-193001" role="stop"/>
		<member type="node" ref="-192965" role="stop"/>
		<member type="node" ref="-192963" role="stop"/>
		<member type="node" ref="-192999" role="stop"/>
		<member type="node" ref="-192983" role="stop"/>
		<member type="node" ref="252356770" role="stop"/>
		<tag k="name" v="TurbieToHospital"/>
		<tag k="operator" v="MoST"/>
		<tag k="ref" v="M3:Hospital"/>
		<tag k="route" v="bus"/>
		<tag k="type" v="route"/>
	</relation>
	<relation id="-193193" version="1">
		<member type="node" ref="3941531168" role="stop"/>
		<member type="node" ref="-192985" role="stop"/>
		<tag k="name" v="MoSTtoLaTurbie"/>
		<tag k="operator" v="MoST"/>
		<tag k="ref" v="M2:Turbie"/>
		<tag k="route" v="bus"/>
		<tag k="type" v="route"/>
	</relation>
	<relation id="-193195" version="1">
		<member type="node" ref="33016223" role="stop"/>
		<member type="node" ref="-192989" role="stop"/>
		<member type="node" ref="-192981" role="stop"/>
		<member type="node" ref="1871958568" role="stop"/>
		<member type="node" ref="-192975" role="stop"/>
		<member type="node" ref="-192961" role="stop"/>
		<tag k="from" v="Italy"/>
		<tag k="name" v="MoSTtoFrance"/>
		<tag k="operator" v="MoST"/>
		<tag k="ref" v="M0:France"/>
		<tag k="route" v="train"/>
		<tag k="to" v="France"/>
		<tag k="type" v="route"/>
	</relation>
	<relation id="-193197" version="1">
		<member type="node" ref="4002373053" role="stop"/>
		<member type="node" ref="4002373051" role="stop"/>
		<member type="node" ref="-192995" role="stop"/>
		<member type="node" ref="4154007315" role="stop"/>
		<tag k="name" v="MoSTtoTrain"/>
		<tag k="operator" v="MoST"/>
		<tag k="ref" v="M4:Train"/>
		<tag k="route" v="bus"/>
		<tag k="type" v="route"/>
	</relation>
	<relation id="-193199" version="1">
		<member type="node" ref="-192979" role="stop"/>
		<member type="node" ref="4154007320" role="stop"/>
		<member type="node" ref="4002373050" role="stop"/>
		<member type="node" ref="4002373052" role="stop"/>
		<member type="node" ref="4002784844" role="stop"/>
		<tag k="name" v="MoSTtoHotelVille"/>
		<tag k="operator" v="MoST"/>
		<tag k="ref" v="M4:HotelVille"/>
		<tag k="route" v="bus"/>
		<tag k="type" v="route"/>
	</relation>
	<relation id="2207095" version="1">
		<member type="node" ref="2153445075" role="stop"/>
		<member type="node" ref="2185515252" role="stop"/>
		<member type="node" ref="25192215" role="stop"/>
		<member type="node" ref="1770577831" role="stop"/>
		<member type="node" ref="1770577832" role="stop"/>
		<member type="node" ref="1770577834" role="stop"/>
		<member type="node" ref="1770577838" role="stop"/>
		<member type="node" ref="21918939" role="stop"/>
		<member type="node" ref="25240092" role="stop"/>
		<member type="node" ref="25239179" role="stop"/>
		<member type="node" ref="272637923" role="stop"/>
		<member type="node" ref="252417671" role="stop"/>
		<member type="node" ref="280489383" role="stop"/>
		<member type="node" ref="2189614151" role="stop"/>
		<member type="node" ref="2189614147" role="stop"/>
		<member type="node" ref="2189614144" role="stop"/>
		<member type="node" ref="3805333988" role="stop"/>
		<tag k="colour" v="Red"/>
		<tag k="from" v="Monaco Ville (le Rocher)"/>
		<tag k="name" v="Bus 1: Monaco Ville (le Rocher) → Saint-Roman"/>
		<tag k="operator" v="Compagnie des Autobus de Monaco"/>
		<tag k="public_transport:version" v="2"/>
		<tag k="ref" v="1:SaintRoman"/>
		<tag k="route" v="bus"/>
		<tag k="to" v="Saint-Roman"/>
		<tag k="type" v="route"/>
	</relation>
	<relation id="2207100" version="1">
		<member type="node" ref="3805333988" role="stop"/>
		<member type="node" ref="2189614157" role="stop"/>
		<member type="node" ref="2189614142" role="stop"/>
		<member type="node" ref="2189614149" role="stop"/>
		<member type="node" ref="2189614162" role="stop"/>
		<member type="node" ref="280489924" role="stop"/>
		<member type="node" ref="280490389" role="stop"/>
		<member type="node" ref="2189614155" role="stop"/>
		<member type="node" ref="280488113" role="stop"/>
		<member type="node" ref="2185515267" role="stop"/>
		<member type="node" ref="2185515252" role="stop"/>
		<member type="node" ref="2153445075" role="stop"/>
		<tag k="colour" v="Red"/>
		<tag k="from" v="Saint-Roman"/>
		<tag k="name" v="Bus 1: Saint-Roman → Monaco Ville (le Rocher)"/>
		<tag k="operator" v="Compagnie des Autobus de Monaco"/>
		<tag k="public_transport:version" v="2"/>
		<tag k="ref" v="1:Monaco"/>
		<tag k="route" v="bus"/>
		<tag k="to" v="Monaco Ville (le Rocher)"/>
		<tag k="type" v="route"/>
	</relation>
	<relation id="2211941" version="1">
		<member type="node" ref="2153445075" role="stop"/>
		<member type="node" ref="2185515252" role="stop"/>
		<member type="node" ref="25192215" role="stop"/>
		<member type="node" ref="1770577831" role="stop"/>
		<member type="node" ref="1770577832" role="stop"/>
		<member type="node" ref="1770577845" role="stop"/>
		<member type="node" ref="1737326309" role="stop"/>
		<member type="node" ref="252417671" role="stop"/>
		<member type="node" ref="1699777833" role="stop"/>
		<member type="node" ref="1774994951" role="stop"/>
		<member type="node" ref="25198472" role="stop"/>
		<member type="node" ref="2185515257" role="stop"/>
		<member type="node" ref="1774994953" role="stop"/>
		<member type="node" ref="2189620623" role="stop"/>
		<member type="node" ref="25200449" role="stop"/>
		<member type="node" ref="2189620629" role="stop"/>
		<tag k="colour" v="DodgerBlue"/>
		<tag k="from" v="Monaco Ville (le Rocher)"/>
		<tag k="name" v="Bus 2: Monaco Ville (le Rocher) → Jardin Exotique"/>
		<tag k="network" v="Autobus de Monaco"/>
		<tag k="operator" v="Compagnie des Autobus de Monaco"/>
		<tag k="public_transport:version" v="2"/>
		<tag k="ref" v="2:Jardin"/>
		<tag k="route" v="bus"/>
		<tag k="to" v="Jardin Exotique"/>
		<tag k="type" v="route"/>
	</relation>
	<relation id="2211942" version="1">
		<member type="node" ref="2189620629" role="stop"/>
		<member type="node" ref="25198929" role="stop"/>
		<member type="node" ref="2189620630" role="stop"/>
		<member type="node" ref="819783219" role="stop"/>
		<member type="node" ref="1868767857" role="stop"/>
		<member type="node" ref="1079750568" role="stop"/>
		<member type="node" ref="4937466467" role="stop"/>
		<member type="node" ref="280489924" role="stop"/>
		<member type="node" ref="280490389" role="stop"/>
		<member type="node" ref="2189614155" role="stop"/>
		<member type="node" ref="280488113" role="stop"/>
		<member type="node" ref="2185515267" role="stop"/>
		<member type="node" ref="1306034044" role="stop"/>
		<member type="node" ref="2153445075" role="stop"/>
		<tag k="colour" v="DodgerBlue"/>
		<tag k="from" v="Jardin Exotique"/>
		<tag k="name" v="Bus 2: Jardin Exotique → Monaco Ville (le Rocher)"/>
		<tag k="operator" v="Compagnie des Autobus de Monaco"/>
		<tag k="public_transport:version" v="2"/>
		<tag k="ref" v="2:Monaco"/>
		<tag k="route" v="bus"/>
		<tag k="to" v="Monaco Ville (le Rocher)"/>
		<tag k="type" v="route"/>
	</relation>
	<relation id="2214022" version="1">
		<member type="node" ref="1690213023" role="stop"/>
		<member type="node" ref="1776309874" role="stop"/>
		<member type="node" ref="254516782" role="stop"/>
		<member type="node" ref="1776309872" role="stop"/>
		<member type="node" ref="4937756563" role="stop"/>
		<member type="node" ref="4002899216" role="stop"/>
		<member type="node" ref="1872357148" role="stop"/>
		<member type="node" ref="1776309843" role="stop"/>
		<member type="node" ref="-192997" role="stop"/>
		<member type="node" ref="1079750568" role="stop"/>
		<member type="node" ref="4937466467" role="stop"/>
		<member type="node" ref="252417671" role="stop"/>
		<member type="node" ref="280489383" role="stop"/>
		<member type="node" ref="2189614151" role="stop"/>
		<member type="node" ref="2189614147" role="stop"/>
		<member type="node" ref="2189614144" role="stop"/>
		<member type="node" ref="1352289907" role="stop"/>
		<tag k="colour" v="#FFCC00"/>
		<tag k="from" v="Fontvieille - Centre Commercial"/>
		<tag k="name" v="Bus 4: Fontvieille - Centre Commercial → Saint-Roman"/>
		<tag k="network" v="Autobus de Monaco"/>
		<tag k="operator" v="Compagnie des Autobus de Monaco"/>
		<tag k="public_transport:version" v="2"/>
		<tag k="ref" v="4:SaintRoman"/>
		<tag k="route" v="bus"/>
		<tag k="to" v="Saint-Roman"/>
		<tag k="type" v="route"/>
	</relation>
	<relation id="2214023" version="1">
		<member type="node" ref="1352289907" role="stop"/>
		<member type="node" ref="1079750806" role="stop"/>
		<member type="node" ref="3465728159" role="stop"/>
		<member type="node" ref="2189614157" role="stop"/>
		<member type="node" ref="2189614142" role="stop"/>
		<member type="node" ref="2189614149" role="stop"/>
		<member type="node" ref="2189614162" role="stop"/>
		<member type="node" ref="1699777833" role="stop"/>
		<member type="node" ref="1774994951" role="stop"/>
		<member type="node" ref="25198472" role="stop"/>
		<member type="node" ref="1776309816" role="stop"/>
		<member type="node" ref="25195781" role="stop"/>
		<member type="node" ref="25195913" role="stop"/>
		<member type="node" ref="2185515252" role="stop"/>
		<member type="node" ref="2185515266" role="stop"/>
		<member type="node" ref="1690213023" role="stop"/>
		<tag k="colour" v="#FFCC00"/>
		<tag k="from" v="Saint-Roman"/>
		<tag k="name" v="Bus 4: Saint-Roman → Fontvieille - Centre Commercial"/>
		<tag k="network" v="Autobus de Monaco"/>
		<tag k="note" v="Intricate relation - do not autosort."/>
		<tag k="operator" v="Compagnie des Autobus de Monaco"/>
		<tag k="public_transport:version" v="2"/>
		<tag k="ref" v="4:Fontvieille"/>
		<tag k="route" v="bus"/>
		<tag k="to" v="Fontvieille - Centre Commercial"/>
		<tag k="type" v="route"/>
	</relation>
	<relation id="2218008" version="1">
		<member type="node" ref="1079751176" role="stop"/>
		<member type="node" ref="4939084253" role="stop"/>
		<member type="node" ref="1079750725" role="stop"/>
		<member type="node" ref="1778434285" role="stop"/>
		<member type="node" ref="1079750894" role="stop"/>
		<member type="node" ref="25240092" role="stop"/>
		<member type="node" ref="25239179" role="stop"/>
		<member type="node" ref="272637923" role="stop"/>
		<member type="node" ref="252417671" role="stop"/>
		<member type="node" ref="1699777833" role="stop"/>
		<member type="node" ref="1774994951" role="stop"/>
		<member type="node" ref="25198472" role="stop"/>
		<member type="node" ref="4938342167" role="stop"/>
		<member type="node" ref="1778433994" role="stop"/>
		<member type="node" ref="4937466456" role="stop"/>
		<member type="node" ref="1373711177" role="stop"/>
		<member type="node" ref="252358385" role="stop"/>
		<member type="node" ref="252356770" role="stop"/>
		<tag k="colour" v="#AA5500"/>
		<tag k="from" v="Larvotto"/>
		<tag k="name" v="Bus 5: Larvotto → Hôpital"/>
		<tag k="network" v="Autobus de Monaco"/>
		<tag k="note" v="Intricate relation - do not autosort."/>
		<tag k="operator" v="Compagnie des Autobus de Monaco"/>
		<tag k="public_transport:version" v="2"/>
		<tag k="ref" v="5:Hopital"/>
		<tag k="route" v="bus"/>
		<tag k="to" v="Hôpital"/>
		<tag k="type" v="route"/>
	</relation>
	<relation id="2218009" version="1">
		<member type="node" ref="252356770" role="stop"/>
		<member type="node" ref="1778433991" role="stop"/>
		<member type="node" ref="4937466458" role="stop"/>
		<member type="node" ref="1778433993" role="stop"/>
		<member type="node" ref="2185515268" role="stop"/>
		<member type="node" ref="1079750568" role="stop"/>
		<member type="node" ref="4937466467" role="stop"/>
		<member type="node" ref="252417671" role="stop"/>
		<member type="node" ref="2189614146" role="stop"/>
		<member type="node" ref="1685108323" role="stop"/>
		<member type="node" ref="21918939" role="stop"/>
		<member type="node" ref="1778434196" role="stop"/>
		<member type="node" ref="2189614154" role="stop"/>
		<member type="node" ref="1778434197" role="stop"/>
		<member type="node" ref="1079751176" role="stop"/>
		<tag k="colour" v="#AA5500"/>
		<tag k="from" v="Hôpital"/>
		<tag k="name" v="Bus 5: Hôpital → Larvotto"/>
		<tag k="network" v="Autobus de Monaco"/>
		<tag k="operator" v="Compagnie des Autobus de Monaco"/>
		<tag k="public_transport:version" v="2"/>
		<tag k="ref" v="5:Larvotto"/>
		<tag k="route" v="bus"/>
		<tag k="to" v="Larvotto"/>
		<tag k="type" v="route"/>
	</relation>
	<relation id="2218010" version="1">
		<member type="node" ref="1690213023" role="stop"/>
		<member type="node" ref="1776309874" role="stop"/>
		<member type="node" ref="254516782" role="stop"/>
		<member type="node" ref="1776309872" role="stop"/>
		<member type="node" ref="4937756563" role="stop"/>
		<member type="node" ref="4938969812" role="stop"/>
		<member type="node" ref="1776309882" role="stop"/>
		<member type="node" ref="1770577831" role="stop"/>
		<member type="node" ref="1770577832" role="stop"/>
		<member type="node" ref="1770577845" role="stop"/>
		<member type="node" ref="1737326309" role="stop"/>
		<member type="node" ref="252417671" role="stop"/>
		<member type="node" ref="2189614146" role="stop"/>
		<member type="node" ref="1685108323" role="stop"/>
		<member type="node" ref="21918939" role="stop"/>
		<member type="node" ref="1778434196" role="stop"/>
		<member type="node" ref="2189614154" role="stop"/>
		<member type="node" ref="1778434197" role="stop"/>
		<member type="node" ref="1079751176" role="stop"/>
		<tag k="colour" v="#88BB00"/>
		<tag k="from" v="Fontvieille - Centre Commercial"/>
		<tag k="name" v="Bus 6: Fontvieille - Centre Commercial → Larvotto"/>
		<tag k="note" v="Intricate relation - do not autosort."/>
		<tag k="operator" v="Compagnie des Autobus de Monaco"/>
		<tag k="public_transport:version" v="2"/>
		<tag k="ref" v="6:Larvotto"/>
		<tag k="route" v="bus"/>
		<tag k="to" v="Larvotto"/>
		<tag k="type" v="route"/>
	</relation>
	<relation id="2218011" version="1">
		<member type="node" ref="1079751176" role="stop"/>
		<member type="node" ref="4939084253" role="stop"/>
		<member type="node" ref="1079750725" role="stop"/>
		<member type="node" ref="1778434285" role="stop"/>
		<member type="node" ref="1079750894" role="stop"/>
		<member type="node" ref="25240092" role="stop"/>
		<member type="node" ref="25239179" role="stop"/>
		<member type="node" ref="272637923" role="stop"/>
		<member type="node" ref="280489924" role="stop"/>
		<member type="node" ref="280490389" role="stop"/>
		<member type="node" ref="2189614155" role="stop"/>
		<member type="node" ref="280488113" role="stop"/>
		<member type="node" ref="2185515267" role="stop"/>
		<member type="node" ref="2185515252" role="stop"/>
		<member type="node" ref="2185515266" role="stop"/>
		<member type="node" ref="1690213023" role="stop"/>
		<tag k="colour" v="#88BB00"/>
		<tag k="from" v="Larvotto"/>
		<tag k="name" v="Bus 6: Larvotto → Fontvieille - Centre Commercial"/>
		<tag k="operator" v="Compagnie des Autobus de Monaco"/>
		<tag k="public_transport:version" v="2"/>
		<tag k="ref" v="6:Fontvieille"/>
		<tag k="route" v="bus"/>
		<tag k="to" v="Fontvieille - Centre Commercial"/>
		<tag k="type" v="route"/>
	</relation>
	<relation id="6287860" version="1">
		<member type="node" ref="4002288099" role="stop"/>
		<member type="node" ref="4002288102" role="stop"/>
		<member type="node" ref="4002332290" role="stop"/>
		<member type="node" ref="2793583449" role="stop"/>
		<member type="node" ref="4002373049" role="stop"/>
		<member type="node" ref="4002373050" role="stop"/>
		<member type="node" ref="4002373052" role="stop"/>
		<member type="node" ref="4002784844" role="stop"/>
		<member type="node" ref="4002784847" role="stop"/>
		<member type="node" ref="4002784848" role="stop"/>
		<member type="node" ref="4002899215" role="stop"/>
		<member type="node" ref="1872357148" role="stop"/>
		<member type="node" ref="21917308" role="stop"/>
		<member type="node" ref="4005841482" role="stop"/>
		<member type="node" ref="4005947495" role="stop"/>
		<member type="node" ref="4005947498" role="stop"/>
		<member type="node" ref="2208239607" role="stop"/>
		<member type="node" ref="2208231140" role="stop"/>
		<member type="node" ref="2208230077" role="stop"/>
		<member type="node" ref="2208223574" role="stop"/>
		<member type="node" ref="2208220044" role="stop"/>
		<member type="node" ref="2208211374" role="stop"/>
		<member type="node" ref="2208212679" role="stop"/>
		<member type="node" ref="2208211376" role="stop"/>
		<member type="node" ref="2208203831" role="stop"/>
		<member type="node" ref="2208184653" role="stop"/>
		<member type="node" ref="939377831" role="stop"/>
		<member type="node" ref="939377830" role="stop"/>
		<tag k="from" v="Nice - Le Port"/>
		<tag k="name" v="100 Nice à Menton"/>
		<tag k="operator" v="Lignes d&#39;Azur"/>
		<tag k="public_transport:version" v="2"/>
		<tag k="ref" v="100:Menton"/>
		<tag k="route" v="bus"/>
		<tag k="to" v="Menton - Gare Routière"/>
		<tag k="type" v="route"/>
	</relation>
	<relation id="6288251" version="1">
		<member type="node" ref="2197630989" role="stop"/>
		<member type="node" ref="800068165" role="stop"/>
		<member type="node" ref="939377838" role="stop"/>
		<member type="node" ref="2208203832" role="stop"/>
		<member type="node" ref="2208203833" role="stop"/>
		<member type="node" ref="2208211375" role="stop"/>
		<member type="node" ref="2208216809" role="stop"/>
		<member type="node" ref="2208221199" role="stop"/>
		<member type="node" ref="2208224569" role="stop"/>
		<member type="node" ref="2208239540" role="stop"/>
		<member type="node" ref="2208239538" role="stop"/>
		<member type="node" ref="4005947497" role="stop"/>
		<member type="node" ref="4005947496" role="stop"/>
		<member type="node" ref="3465728159" role="stop"/>
		<member type="node" ref="2189614149" role="stop"/>
		<member type="node" ref="1699777655" role="stop"/>
		<member type="node" ref="280488113" role="stop"/>
		<member type="node" ref="941678579" role="stop"/>
		<member type="node" ref="4002784849" role="stop"/>
		<member type="node" ref="4002784846" role="stop"/>
		<member type="node" ref="4002784845" role="stop"/>
		<member type="node" ref="4002373053" role="stop"/>
		<member type="node" ref="4002373051" role="stop"/>
		<member type="node" ref="693242165" role="stop"/>
		<member type="node" ref="4002332292" role="stop"/>
		<member type="node" ref="4002332291" role="stop"/>
		<member type="node" ref="4002288101" role="stop"/>
		<member type="node" ref="4002288098" role="stop"/>
		<tag k="from" v="Menton - Gare Routière"/>
		<tag k="name" v="100 Menton à Nice"/>
		<tag k="operator" v="Lignes d&#39;Azur"/>
		<tag k="public_transport:version" v="2"/>
		<tag k="ref" v="100:Nice"/>
		<tag k="route" v="bus"/>
		<tag k="to" v="Nice - Le Port"/>
		<tag k="type" v="route"/>
	</relation>
	<relation id="7358688" version="1">
		<member type="node" ref="1780610244" role="stop"/>
		<member type="node" ref="25198929" role="stop"/>
		<member type="node" ref="2189620625" role="stop"/>
		<member type="node" ref="819783219" role="stop"/>
		<member type="node" ref="1868767857" role="stop"/>
		<member type="node" ref="4938342167" role="stop"/>
		<member type="node" ref="1778433994" role="stop"/>
		<member type="node" ref="4937466456" role="stop"/>
		<member type="node" ref="1373711177" role="stop"/>
		<member type="node" ref="2165282734" role="stop"/>
		<member type="node" ref="252356750" role="stop"/>
		<member type="node" ref="1872357148" role="stop"/>
		<member type="node" ref="2185515252" role="stop"/>
		<member type="node" ref="2185515266" role="stop"/>
		<member type="node" ref="1690213023" role="stop"/>
		<tag k="colour" v="DarkGray"/>
		<tag k="from" v="Hector Otto"/>
		<tag k="name" v="Bus 3: Hector Otto → Fontvieille - Centre Commercial"/>
		<tag k="network" v="Autobus de Monaco"/>
		<tag k="operator" v="Compagnie des Autobus de Monaco"/>
		<tag k="public_transport:version" v="2"/>
		<tag k="ref" v="3:Fontvieille"/>
		<tag k="route" v="bus"/>
		<tag k="to" v="Fontvieille - Centre Commercial"/>
		<tag k="type" v="route"/>
	</relation>
	<relation id="7358689" version="1">
		<member type="node" ref="1776309882" role="stop"/>
		<member type="node" ref="1770577831" role="stop"/>
		<member type="node" ref="1770577832" role="stop"/>
		<member type="node" ref="280488113" role="stop"/>
		<member type="node" ref="2185515267" role="stop"/>
		<member type="node" ref="1872357146" role="stop"/>
		<member type="node" ref="-192977" role="stop"/>
		<member type="node" ref="1778433990" role="stop"/>
		<member type="node" ref="252358385" role="stop"/>
		<member type="node" ref="252356770" role="stop"/>
		<member type="node" ref="1778433991" role="stop"/>
		<member type="node" ref="4937466458" role="stop"/>
		<member type="node" ref="1778433993" role="stop"/>
		<member type="node" ref="2185515268" role="stop"/>
		<member type="node" ref="2185515257" role="stop"/>
		<member type="node" ref="1774994953" role="stop"/>
		<member type="node" ref="-192967" role="stop"/>
		<member type="node" ref="25200449" role="stop"/>
		<member type="node" ref="1780610244" role="stop"/>
		<tag k="colour" v="DarkGray"/>
		<tag k="from" v="Fontvieille - Centre Commercial"/>
		<tag k="name" v="Bus 3: Fontvieille - Centre Commercial → Hector Otto"/>
		<tag k="network" v="Autobus de Monaco"/>
		<tag k="note" v="Intricate relation - do not autosort."/>
		<tag k="operator" v="Compagnie des Autobus de Monaco"/>
		<tag k="public_transport:version" v="2"/>
		<tag k="ref" v="3:Otto"/>
		<tag k="route" v="bus"/>
		<tag k="to" v="Hector Otto"/>
		<tag k="type" v="route"/>
	</relation>
	<relation id="7425497" version="1">
		<member type="node" ref="2208211376" role="stop"/>
		<tag k="name" v="21 Monaco Crémaillère - Roquebrune Vieux Village - Menton Gare Routière"/>
		<tag k="network" v="Zest"/>
		<tag k="ref" v="21:Menton"/>
		<tag k="route" v="bus"/>
		<tag k="type" v="route"/>
	</relation>
</osm>
